     2.10           Navigation                              RINEX VERSION / TYPE
gl_Rinex            NMA                 02/02/2019 00:02:30 PGM / RUN BY / DATE 
    8.3819E-09 -7.4506E-09 -5.9605E-08  5.9605E-08          ION ALPHA           
    8.8064E+04 -3.2768E+04 -1.9661E+05  1.9661E+05          ION BETA            
    9.313225746155E-10 2.664535259100E-15   589824     2038 DELTA-UTC: A0,A1,T,W
    18                                                      LEAP SECONDS        
                                                            END OF HEADER       
11 19  2  1  1 59 44.0-6.671370938420E-04 5.684341886081E-12 0.000000000000E+00
    3.000000000000E+01-9.125000000000E+01 5.935961542339E-09-4.887439180088E-01
   -4.697591066360E-06 1.657648570836E-02 3.850087523460E-06 5.153684909821E+03
    4.391840000000E+05-2.160668373108E-07-1.294482855721E+00-4.097819328308E-08
    9.080571500309E-01 2.770312500000E+02 1.859097396263E+00-9.181811030713E-09
   -1.103617398666E-10 1.000000000000E+00 2.038000000000E+03 0.000000000000E+00
    2.000000000000E+00 0.000000000000E+00-1.210719347000E-08 3.000000000000E+01
    4.320180000000E+05 0.000000000000E+00                                      
30 19  2  1  2  0  0.0-4.518125206232E-05-6.252776074689E-12 0.000000000000E+00
    5.600000000000E+01 1.543750000000E+01 4.810557521887E-09-4.146421843342E-01
    8.288770914078E-07 3.620024886914E-03 9.246170520782E-06 5.153634325027E+03
    4.392000000000E+05 8.568167686462E-08 2.330662093180E+00 3.725290298462E-08
    9.417583382321E-01 1.901875000000E+02-3.017075221179E+00-8.115338036403E-09
   -3.485859485754E-10 1.000000000000E+00 2.038000000000E+03 0.000000000000E+00
    2.000000000000E+00 0.000000000000E+00 3.725290298462E-09 5.600000000000E+01
    4.320180000000E+05 0.000000000000E+00                                      
10 19  2  1  2  0  0.0 1.254379749298E-04-7.048583938740E-12 0.000000000000E+00
    3.500000000000E+01-1.859375000000E+01 4.261248926693E-09-1.815914487396E+00
   -1.018866896629E-06 4.291348974220E-03 9.724870324135E-06 5.153663007736E+03
    4.392000000000E+05-2.421438694000E-08 1.879672104345E-01-7.823109626770E-08
    9.627351469032E-01 1.940937500000E+02-2.767983659504E+00-7.692820436849E-09
    4.735911555440E-10 1.000000000000E+00 2.038000000000E+03 0.000000000000E+00
    2.000000000000E+00 0.000000000000E+00 1.862645149231E-09 3.500000000000E+01
    4.320180000000E+05 0.000000000000E+00                                      
 8 19  2  1  2  0  0.0-1.311246305704E-04-1.364242052659E-12 0.000000000000E+00
    1.300000000000E+01 6.031250000000E+00 4.638050336270E-09 2.721893478909E+00
    3.930180980660E-07 4.204043652862E-03 1.430511474609E-06 5.153689149857E+03
    4.392000000000E+05-3.539025783539E-08-1.917655117713E+00 1.080334186554E-07
    9.699154677524E-01 3.573750000000E+02-3.645197363045E-01-8.296774165375E-09
    1.785788670980E-11 1.000000000000E+00 2.038000000000E+03 0.000000000000E+00
    2.000000000000E+00 0.000000000000E+00 5.122274160385E-09 1.300000000000E+01
    4.320180000000E+05 0.000000000000E+00
